OBJECT_NAME,OBJECT_ID,EPOCH,MEAN_MOTION,ECCENTRICITY,INCLINATION,RA_OF_ASC_NODE,ARG_OF_PERICENTER,MEAN_ANOMALY,EPHEMERIS_TYPE,CLASSIFICATION_TYPE,NORAD_CAT_ID,ELEMENT_SET_NO,REV_AT_EPOCH,BSTAR,MEAN_MOTION_DOT,MEAN_MOTION_DDOT
TRANSPORTER-17 OBJECT CC,2026-156CC,2026-07-23T04:02:08.797632,14.92137426,.00099179,97.7504,104.3689,97.3184,262.9162,0,U,100100,999,236,.36609818E-3,.3671E-4,0
2026-168A,2026-168A,2026-07-23T06:57:30.206880,15.09124112,.00173573,97.5396,286.0021,332.3457,27.6847,0,U,100129,999,18,.40946718E-3,.6455E-4,0
2026-168B,2026-168B,2026-07-23T06:57:29.502720,15.09134945,.0017421,97.5392,286.0021,332.3140,27.7160,0,U,100130,999,18,.4065318E-3,.641E-4,0
2026-168C,2026-168C,2026-07-23T06:57:19.914048,15.09269719,.00184259,97.5405,286.0025,329.9263,30.0906,0,U,100131,999,18,.23498294E-3,.3692E-4,0
2026-168D,2026-168D,2026-07-23T06:57:18.351936,15.09298780,.00183799,97.5392,286.0024,331.0409,28.9799,0,U,100132,999,18,.4234085E-3,.6712E-4,0
2026-168E,2026-168E,2026-07-23T06:57:16.305984,15.09323401,.0018665,97.5405,286.0025,330.5382,29.4793,0,U,100133,999,18,.17141897E-3,.268E-4,0
2026-168F,2026-168F,2026-07-23T06:57:14.368032,15.09357266,.00184948,97.5450,286.0032,332.5448,27.4802,0,U,100134,999,18,.24087082E-3,.3796E-4,0
2026-168G,2026-168G,2026-07-23T06:57:04.864032,15.09500106,.00191203,97.5352,286.0020,332.9733,27.0499,0,U,100135,999,18,.2408446E-3,.3811E-4,0
2026-168H,2026-168H,2026-07-23T06:56:58.202592,15.09602701,.00193356,97.5408,286.0028,335.3570,24.6733,0,U,100136,999,18,.18366107E-3,.2899E-4,0
2026-168J,2026-168J,2026-07-23T06:56:51.030528,15.09713791,.00196866,97.5406,286.0030,336.1865,23.8452,0,U,100137,999,16,.30677733E-3,.4903E-4,0
YINLI-1 R/B,2026-168K,2026-07-23T06:17:40.585056,15.46980734,.01542764,97.5366,285.9747,73.3283,288.4838,0,U,100138,999,18,.5135291E-3,.4162E-3,0
